MOLNIYA 1-80            
<<<<<<< .mine
1 21118U 91012A   13103.00423413  .00001984  00000-0  65143-3 0  2897
2 21118  61.6241  59.6699 7480614 274.9532  28.4952  2.00366007162341
=======
1 21118U 91012A   13108.99194187  .00001869  00000-0  30638-3 0  2931
2 21118  61.6338  58.6383 7482610 275.0864  27.7972  2.00388101162461
>>>>>>> .r6620
MOLNIYA 3-40            
<<<<<<< .mine
1 21196U 91022A   13103.25459378  .00000545  00000-0  52579-3 0  8011
2 21196  61.9530  38.5447 7497558 278.4954 314.8243  2.01213100161643
=======
1 21196U 91022A   13109.81387933 -.00000138  00000-0  31539-3 0  8074
2 21196  61.9571  37.3978 7498850 278.6171  26.2364  2.01215925161783
>>>>>>> .r6620
MOLNIYA 1-81            
<<<<<<< .mine
1 21426U 91043A   13103.89237541 -.00000089  00000-0 -22249-2 0  8437
2 21426  62.4275  41.8977 7364840 279.0938  28.6037  2.00623205159910
=======
1 21426U 91043A   13108.27171365 -.00000075  00000-0 -33355-2 0  8441
2 21426  62.4335  41.2111 7365822 279.1423 311.5673  2.00623137160008
>>>>>>> .r6620
MOLNIYA 3-41            
<<<<<<< .mine
1 21706U 91065A   13101.80428184  .00000364  00000-0 -35542-3 0  1356
2 21706  63.4557 201.0439 7044594 284.7368 302.2809  2.04357876158402
=======
1 21706U 91065A   13109.63513059 -.00000978  00000-0  25330-1 0  1387
2 21706  63.4546 200.0590 7040738 284.7071 303.5591  2.04359657158562
>>>>>>> .r6620
MOLNIYA 3-42            
<<<<<<< .mine
1 22178U 92067A   13103.69228896  .00002472  00000-0  48663-3 0  5173
2 22178  62.5934 324.4119 7354694 283.2742  25.4823  2.20072586150643
=======
1 22178U 92067A   13108.69011502  .00002053  00000-0  38886-3 0  5207
2 22178  62.5993 323.4621 7353011 283.3458  25.2231  2.20087498150753
>>>>>>> .r6620
MOLNIYA 1-86            
<<<<<<< .mine
1 22671U 93035A   13104.06525972  .00038255  00000-0  11223-2 0  4914
2 22671  62.7189  48.0196 5171474 300.1637  18.5942  5.44268615164214
=======
1 22671U 93035A   13109.94269152  .00028879  00000-0  84283-3 0  5011
2 22671  62.7254  44.5262 5169507 300.3549  18.5174  5.44625096164532
>>>>>>> .r6620
MOLNIYA 3-45            
<<<<<<< .mine
1 22729U 93049A   13102.82689200  .00001795  00000-0  74783-3 0  5427
2 22729  61.9861  72.6922 7505786 271.0961  12.7103  2.01387672144242
=======
1 22729U 93049A   13109.77826193  .00001220  00000-0  47662-3 0  5476
2 22729  61.9834  71.4765 7508399 271.2244  12.6568  2.01399754144386
>>>>>>> .r6620
MOLNIYA 1-87            
<<<<<<< .mine
1 22949U 93079A   13102.40506689  .00001647  00000-0  47532-2 0   700
2 22949  61.6000 206.5215 7292412 261.7301  17.5984  2.00248053141519
=======
1 22949U 93079A   13109.39579664  .00001763  00000-0  47532-2 0   741
2 22949  61.5991 205.4806 7292104 261.8361  17.5667  2.00269703141654
>>>>>>> .r6620
MOLNIYA 1-88            
<<<<<<< .mine
1 23420U 94081A   13103.86244893  .00150977  97440-5  12543-3 0  8349
2 23420  62.4987   1.5257 6909264 282.5357  13.6114  2.85072419135325
=======
1 23420U 94081A   13109.80950246  .00117516  14161-4  10219-3 0  8523
2 23420  62.5041 359.9532 6897668 282.6530  13.6570  2.86611553135494
>>>>>>> .r6620
MOLNIYA 3-47            
<<<<<<< .mine
1 23642U 95042A   13103.76802083  .00000401  00000-0  28394-3 0   422
2 23642  61.8677 183.3954 7271526 264.9841  16.5394  2.00585458129569
=======
1 23642U 95042A   13107.25769014  .00000394  00000-0 -19652-2 0   435
2 23642  61.8668 182.8874 7271666 265.0207  16.5167  2.00586453129639
>>>>>>> .r6620
MOLNIYA 1-90            
<<<<<<< .mine
1 24960U 97054A   13097.45284164  .00000946  00000-0  59345-4 0  5232
2 24960  61.9682 219.7858 7361013 263.7823 238.5055  2.04611540114105
=======
1 24960U 97054A   13106.07064125  .00000657  00000-0  52548-3 0  5252
2 24960  61.9652 218.3926 7359316 263.8979 106.6884  2.04629078114277
>>>>>>> .r6620
MOLNIYA 1-91            
<<<<<<< .mine
1 25485U 98054A   13103.21048928 -.00000068  00000-0  10000-3 0  9238
2 25485  63.1039   0.3608 7436799 254.6071 350.3339  2.00619037106512
=======
1 25485U 98054A   13110.18869764 -.00000036  00000-0  10000-3 0  9292
2 25485  63.0984 359.2319 7437799 254.6459 350.2287  2.00620093106656
>>>>>>> .r6620
MOLNIYA 3-50            
<<<<<<< .mine
1 25847U 99036A   13104.12978581  .00000329  00000-0  00000+0 0  4711
2 25847  63.3689 114.1645 7060246 257.6330  56.5457  2.00593325100873
=======
1 25847U 99036A   13110.11184041  .00000415  00000-0  00000+0 0  4757
2 25847  63.3686 113.4280 7063998 257.6150  56.4948  2.00595807100998
>>>>>>> .r6620
MOLNIYA 3-51            
<<<<<<< .mine
1 26867U 01030A   13104.24810581 -.00000571  00000-0  00000+0 0  3752
2 26867  63.5181  20.1465 7503458 254.4477 350.5096  2.00642450 85989
=======
1 26867U 01030A   13109.82037909 -.00000219  00000-0  00000+0 0  3834
2 26867  63.5144  19.2186 7504595 254.4466  55.5517  2.00648142 86095
>>>>>>> .r6620
MOLNIYA 1-92            
<<<<<<< .mine
1 27707U 03011A   13103.83961115  .00185202  54759-4  16430-3 0  5120
2 27707  64.0012  26.1562 7499928 243.4882 272.1994  2.07894836 73549
=======
1 27707U 03011A   13110.15300420  .00176750 -39457-5  11888-3 0  5242
2 27707  63.9933  25.0711 7482835 243.4499 344.0535  2.10294108 73670
>>>>>>> .r6620
MOLNIYA 3-53            
<<<<<<< .mine
1 27834U 03029A   13104.15565498  .00052949  22604-5  14728-3 0  7430
2 27834  64.0129  27.0028 7526072 243.6310  26.8241  2.03591680 71965
=======
1 27834U 03029A   13109.92496711  .00064066  27358-6  13981-3 0  7526
2 27834  63.9977  26.0306 7521420 243.6065 302.7351  2.04311287 72076
>>>>>>> .r6620
MOLNIYA 1-93            
<<<<<<< .mine
1 28163U 04005A   13103.60193538  .00000046  00000-0  10000-3 0  1112
2 28163  64.7098 131.6989 7076618 252.0046  14.0147  2.00634715 67049
=======
1 28163U 04005A   13110.02750120  .00000090  00000-0  10000-3 0  1166
2 28163  64.7086 130.9405 7080498 251.9043 335.1602  2.00634112 67175
>>>>>>> .r6620
